IRIDIUM 33              
1 24946U 97051C   24366.81533635  .00000811  00000+0  27960-3 0  9998
2 24946  86.3878 213.2739 0005883 263.5470  96.5056 14.34704939428745
IRIDIUM 33 DEB          
1 33775U 97051N   24366.86383807  .00004907  00000+0  15569-2 0  9998
2 33775  86.3661 196.9446 0012932 221.5695 267.6389 14.39815844831609
IRIDIUM 33 DEB          
1 33776U 97051P   24366.84929863  .00002922  00000+0  97267-3 0  9996
2 33776  86.4044 225.8003 0012569 251.9994 119.5194 14.37318523831128
IRIDIUM 33 DEB          
1 33777U 97051Q   24366.77418307  .00012077  00000+0  29849-2 0  9997
2 33777  86.3807 185.1742 0008921   3.8550 356.2723 14.51946542835151
IRIDIUM 33 DEB          
1 33853U 97051W   24366.83472187  .00013495  00000+0  78861-2 0  9998
2 33853  86.0021 141.2175 0217950 215.9219 299.3921 13.97101125805126
IRIDIUM 33 DEB          
1 33859U 97051AC  24365.82568382  .00077056  00000+0  99373-2 0  9999
2 33859  86.3286 164.3410 0023207 150.3660 209.8882 14.80432897833576
IRIDIUM 33 DEB          
1 33860U 97051AD  24366.75160023  .00017394  00000+0  35859-2 0  9992
2 33860  86.3875 179.4704 0011643  76.6675 294.6004 14.60337194836609
IRIDIUM 33 DEB          
1 33862U 97051AF  24366.80840681  .00030004  00000+0  58510-2 0  9997
2 33862  86.4122 189.2122 0054626 173.4770 197.6665 14.61887643837549
IRIDIUM 33 DEB          
1 33864U 97051AH  24366.49957362  .00154878  00000+0  12006-1 0  9994
2 33864  86.2613  82.1711 0008323 244.6506 126.7581 15.00602171839244
IRIDIUM 33 DEB          
1 33867U 97051AL  24366.69298177  .00046534  00000+0  45048-2 0  9993
2 33867  86.4003 154.4413 0016563 213.7026 146.3150 14.92428707842866
IRIDIUM 33 DEB          
1 33870U 97051AP  24366.83649194  .00008026  00000+0  23794-2 0  9990
2 33870  86.3765 206.1085 0019815 250.6124 120.8024 14.43127639831430
IRIDIUM 33 DEB          
1 33874U 97051AT  24366.22459381  .00111674  00000+0  13848-1 0  9996
2 33874  86.2749 164.8202 0022449  33.1138 140.2547 14.81883461828630
IRIDIUM 33 DEB          
1 33884U 97051BD  24366.73619977  .00029115  00000+0  51947-2 0  9993
2 33884  86.3695 165.0345 0012787  76.5760 294.6011 14.66791394837545
IRIDIUM 33 DEB          
1 33886U 97051BF  24366.93363205  .00001757  00000+0  60474-3 0  9995
2 33886  86.3843 212.5991 0012568 302.7643 167.3093 14.35433374830904
IRIDIUM 33 DEB          
1 33887U 97051BG  24366.82768883  .00001838  00000+0  61737-3 0  9998
2 33887  86.3072 152.3645 0004635 302.7508 200.1618 14.36721122831971
IRIDIUM 33 DEB          
1 33953U 97051BN  24366.83016333  .00012727  00000+0  32056-2 0  9999
2 33953  86.3892 203.2341 0018040 174.3279 197.2168 14.50976130832803
IRIDIUM 33 DEB          
1 33959U 97051BU  24366.81385370  .01157938  00000+0  41537-1 0  9991
2 33959  86.3598 205.1753 0026954 334.6035  25.3884 15.25331872829515
IRIDIUM 33 DEB          
1 33960U 97051BV  24366.55143699  .00038478  00000+0  61850-2 0  9997
2 33960  86.2646  90.6802 0003994 194.7923 230.0539 14.71392332837533
IRIDIUM 33 DEB          
1 33966U 97051CB  24366.89020110  .00006918  00000+0  18827-2 0  9992
2 33966  86.3941 194.1129 0006126 286.7461 140.7981 14.47358727834357
IRIDIUM 33 DEB          
1 34071U 97051CE  24366.73465749  .00008758  00000+0  24038-2 0  9999
2 34071  86.3483 167.8981 0007458 173.8955 186.2340 14.46957042833269
IRIDIUM 33 DEB          
1 34077U 97051CL  24366.51974608  .00019106  00000+0  42396-2 0  9996
2 34077  86.3902 202.9655 0012156 116.9840 272.4570 14.56943401832775
IRIDIUM 33 DEB          
1 34079U 97051CN  24366.91528038  .00036159  00000+0  58015-2 0  9996
2 34079  86.3834 164.4830 0007745  91.0710  69.5597 14.71472385838691
IRIDIUM 33 DEB          
1 34088U 97051CX  24366.47085344  .00034088  00000+0  53943-2 0  9999
2 34088  86.3927 187.2051 0008239   2.2943  26.4990 14.72083729836152
IRIDIUM 33 DEB          
1 34091U 97051DA  24366.55692655  .00039762  00000+0  78548-2 0  9993
2 34091  86.3593 222.0914 0050086  61.1345 299.4879 14.61401641827791
