OBJECT_NAME,OBJECT_ID,EPOCH,MEAN_MOTION,ECCENTRICITY,INCLINATION,RA_OF_ASC_NODE,ARG_OF_PERICENTER,MEAN_ANOMALY,EPHEMERIS_TYPE,CLASSIFICATION_TYPE,NORAD_CAT_ID,ELEMENT_SET_NO,REV_AT_EPOCH,BSTAR,MEAN_MOTION_DOT,MEAN_MOTION_DDOT
IRIDIUM 33,1997-051C,2024-12-31T19:34:05.060640,14.34704939,.0005883,86.3878,213.2739,263.5470,96.5056,0,U,24946,999,42874,.2796E-3,.811E-5,0
IRIDIUM 33 DEB,1997-051N,2024-12-31T20:43:55.609248,14.39815844,.0012932,86.3661,196.9446,221.5695,267.6389,0,U,33775,999,83160,.15569E-2,.4907E-4,0
IRIDIUM 33 DEB,1997-051P,2024-12-31T20:22:59.401632,14.37318523,.0012569,86.4044,225.8003,251.9994,119.5194,0,U,33776,999,83112,.97267E-3,.2922E-4,0
IRIDIUM 33 DEB,1997-051Q,2024-12-31T18:34:49.417248,14.51946542,.0008921,86.3807,185.1742,3.8550,356.2723,0,U,33777,999,83507,.29849E-2,.12077E-3,0
IRIDIUM 33 DEB,1997-051W,2024-12-31T20:01:59.969568,13.97101125,.021795,86.0021,141.2175,215.9219,299.3921,0,U,33853,999,80512,.78861E-2,.13495E-3,0
IRIDIUM 33 DEB,1997-051AC,2024-12-30T19:48:59.082048,14.80432897,.0023207,86.3286,164.3410,150.3660,209.8882,0,U,33859,999,83357,.99373E-2,.77056E-3,0
IRIDIUM 33 DEB,1997-051AD,2024-12-31T18:02:18.259872,14.60337194,.0011643,86.3875,179.4704,76.6675,294.6004,0,U,33860,999,83660,.35859E-2,.17394E-3,0
IRIDIUM 33 DEB,1997-051AF,2024-12-31T19:24:06.348384,14.61887643,.0054626,86.4122,189.2122,173.4770,197.6665,0,U,33862,999,83754,.5851E-2,.30004E-3,0
IRIDIUM 33 DEB,1997-051AH,2024-12-31T11:59:23.160768,15.00602171,.0008323,86.2613,82.1711,244.6506,126.7581,0,U,33864,999,83924,.12006E-1,.154878E-2,0
IRIDIUM 33 DEB,1997-051AL,2024-12-31T16:37:53.624928,14.92428707,.0016563,86.4003,154.4413,213.7026,146.3150,0,U,33867,999,84286,.45048E-2,.46534E-3,0
IRIDIUM 33 DEB,1997-051AP,2024-12-31T20:04:32.903616,14.43127639,.0019815,86.3765,206.1085,250.6124,120.8024,0,U,33870,999,83143,.23794E-2,.8026E-4,0
IRIDIUM 33 DEB,1997-051AT,2024-12-31T05:23:24.905184,14.81883461,.0022449,86.2749,164.8202,33.1138,140.2547,0,U,33874,999,82856,.13848E-1,.111674E-2,0
IRIDIUM 33 DEB,1997-051BD,2024-12-31T17:40:07.660128,14.66791394,.0012787,86.3695,165.0345,76.5760,294.6011,0,U,33884,999,83754,.51947E-2,.29115E-3,0
IRIDIUM 33 DEB,1997-051BF,2024-12-31T22:24:25.809120,14.35433374,.0012568,86.3843,212.5991,302.7643,167.3093,0,U,33886,999,83090,.60474E-3,.1757E-4,0
IRIDIUM 33 DEB,1997-051BG,2024-12-31T19:51:52.314912,14.36721122,.0004635,86.3072,152.3645,302.7508,200.1618,0,U,33887,999,83197,.61737E-3,.1838E-4,0
IRIDIUM 33 DEB,1997-051BN,2024-12-31T19:55:26.111712,14.50976130,.001804,86.3892,203.2341,174.3279,197.2168,0,U,33953,999,83280,.32056E-2,.12727E-3,0
IRIDIUM 33 DEB,1997-051BU,2024-12-31T19:31:56.959680,15.25331872,.0026954,86.3598,205.1753,334.6035,25.3884,0,U,33959,999,82951,.41537E-1,.1157938E-1,0
IRIDIUM 33 DEB,1997-051BV,2024-12-31T13:14:04.155936,14.71392332,.0003994,86.2646,90.6802,194.7923,230.0539,0,U,33960,999,83753,.6185E-2,.38478E-3,0
IRIDIUM 33 DEB,1997-051CB,2024-12-31T21:21:53.375040,14.47358727,.0006126,86.3941,194.1129,286.7461,140.7981,0,U,33966,999,83435,.18827E-2,.6918E-4,0
IRIDIUM 33 DEB,1997-051CE,2024-12-31T17:37:54.407136,14.46957042,.0007458,86.3483,167.8981,173.8955,186.2340,0,U,34071,999,83326,.24038E-2,.8758E-4,0
IRIDIUM 33 DEB,1997-051CL,2024-12-31T12:28:26.061312,14.56943401,.0012156,86.3902,202.9655,116.9840,272.4570,0,U,34077,999,83277,.42396E-2,.19106E-3,0
IRIDIUM 33 DEB,1997-051CN,2024-12-31T21:58:00.224832,14.71472385,.0007745,86.3834,164.4830,91.0710,69.5597,0,U,34079,999,83869,.58015E-2,.36159E-3,0
IRIDIUM 33 DEB,1997-051CX,2024-12-31T11:18:01.737216,14.72083729,.0008239,86.3927,187.2051,2.2943,26.4990,0,U,34088,999,83615,.53943E-2,.34088E-3,0
IRIDIUM 33 DEB,1997-051DA,2024-12-31T13:21:58.453920,14.61401641,.0050086,86.3593,222.0914,61.1345,299.4879,0,U,34091,999,82779,.78548E-2,.39762E-3,0
